COMMENT,ORIGINATOR,NORAD_CAT_ID,OBJECT_NAME,OBJECT_TYPE,CLASSIFICATION_TYPE,INTLDES,EPOCH,EPOCH_MICROSECONDS,MEAN_MOTION,ECCENTRICITY,INCLINATION,RA_OF_ASC_NODE,ARG_OF_PERICENTER,MEAN_ANOMALY,EPHEMERIS_TYPE,ELEMENT_SET_NO,REV_AT_EPOCH,BSTAR,MEAN_MOTION_DOT,MEAN_MOTION_DDOT,FILE,TLE_LINE0,TLE_LINE1,TLE_LINE2,OBJECT_ID,OBJECT_NUMBER,SEMIMAJOR_AXIS,PERIOD,APOGEE,PERIGEE,DECAYED
"GENERATED VIA SPACETRACK.ORG API","18 SPCS","48896","SPACEBEE-105","PAYLOAD","U","21059T","2023-08-30 15:20:02","993856","15.37743679","0.0005079","97.6023","21.7576","352.9327","7.1844","0","999","12081","0.0010429","0.00038741","0","3993321","0 SPACEBEE-105","1 48896U 21059T   23242.63892354  .00038741  00000-0  10429-2 0  9996","2 48896  97.6023  21.7576 0005079 352.9327   7.1844 15.37743679120812","2021-059T","48896","6830.920","93.644","456.255","449.316","0"
"GENERATED VIA SPACETRACK.ORG API","18 SPCS","48896","SPACEBEE-105","PAYLOAD","U","21059T","2023-08-31 08:30:46","529280","15.37799961","0.0005062","97.6026","22.4983","349.6039","10.5099","0","999","12092","0.0010204","0.00037968","0","3994074","0 SPACEBEE-105","1 48896U 21059T   23243.35470520  .00037968  00000-0  10204-2 0  9994","2 48896  97.6026  22.4983 0005062 349.6039  10.5099 15.37799961120927","2021-059T","48896","6830.753","93.640","456.076","449.161","0"
"GENERATED VIA SPACETRACK.ORG API","18 SPCS","48896","SPACEBEE-105","PAYLOAD","U","21059T","2023-09-01 07:56:15","11520","15.37880606","0.0005062","97.603","23.5088","346.0115","14.0988","0","999","12107","0.0011384","0.00042505","0","3994519","0 SPACEBEE-105","1 48896U 21059T   23244.33072930  .00042505  00000-0  11384-2 0  9999","2 48896  97.6030  23.5088 0005062 346.0115  14.0988 15.37880606121076","2021-059T","48896","6830.515","93.635","455.837","448.922","0"
"GENERATED VIA SPACETRACK.ORG API","18 SPCS","48896","SPACEBEE-105","PAYLOAD","U","21059T","2023-09-01 07:56:15","11520","15.37880606","0.0005062","97.603","23.5088","346.0115","14.0988","0","999","12107","0.0011384","0.00042505","0","3994767","0 SPACEBEE-105","1 48896U 21059T   23244.33072930  .00042505  00000-0  11384-2 0  9999","2 48896  97.6030  23.5088 0005062 346.0115  14.0988 15.37880606121076","2021-059T","48896","6830.515","93.635","455.837","448.922","0"
"GENERATED VIA SPACETRACK.ORG API","18 SPCS","48896","SPACEBEE-105","PAYLOAD","U","21059T","2023-09-01 15:44:43","460448","15.37911331","0.0005048","97.6033","23.8456","344.9591","15.1503","0","999","12112","0.0012211","0.00045663","0","3995056","0 SPACEBEE-105","1 48896U 21059T   23244.65605857  .00045663  00000-0  12211-2 0  9992","2 48896  97.6033  23.8456 0005048 344.9591  15.1503 15.37911331121121","2021-059T","48896","6830.424","93.633","455.737","448.841","0"
"GENERATED VIA SPACETRACK.ORG API","18 SPCS","48896","SPACEBEE-105","PAYLOAD","U","21059T","2023-09-02 08:55:20","152992","15.37974283","0.0005068","97.6033","24.5869","342.2682","17.8385","0","999","12123","0.0011507","0.00043099","0","3995400","0 SPACEBEE-105","1 48896U 21059T   23245.37176103  .00043099  00000-0  11507-2 0  9997","2 48896  97.6033  24.5869 0005068 342.2682  17.8385 15.37974283121235","2021-059T","48896","6830.237","93.630","455.564","448.641","0"
"GENERATED VIA SPACETRACK.ORG API","18 SPCS","48896","SPACEBEE-105","PAYLOAD","U","21059T","2023-09-02 08:55:20","152992","15.37974283","0.0005068","97.6033","24.5869","342.2682","17.8385","0","999","12123","0.0011507","0.00043099","0","3995624","0 SPACEBEE-105","1 48896U 21059T   23245.37176103  .00043099  00000-0  11507-2 0  9997","2 48896  97.6033  24.5869 0005068 342.2682  17.8385 15.37974283121235","2021-059T","48896","6830.237","93.630","455.564","448.641","0"
"GENERATED VIA SPACETRACK.ORG API","18 SPCS","48896","SPACEBEE-105","PAYLOAD","U","21059T","2023-09-02 22:58:31","623744","15.38060087","0.0005071","97.6033","25.1934","339.8348","20.2695","0","999","12132","0.0020811","0.00078595","0","3996011","0 SPACEBEE-105","1 48896U 21059T   23245.95731046  .00078595  00000-0  20811-2 0  9991","2 48896  97.6033  25.1934 0005071 339.8348  20.2695 15.38060087121321","2021-059T","48896","6829.983","93.624","455.312","448.385","0"
"GENERATED VIA SPACETRACK.ORG API","18 SPCS","48896","SPACEBEE-105","PAYLOAD","U","21059T","2023-09-03 08:20:38","199840","15.38083117","0.0005089","97.6035","25.5977","337.8293","22.273","0","999","12138","0.0014495","0.00054586","0","3996383","0 SPACEBEE-105","1 48896U 21059T   23246.34766435  .00054586  00000-0  14495-2 0  9990","2 48896  97.6035  25.5977 0005089 337.8293  22.2730 15.38083117121387","2021-059T","48896","6829.915","93.623","455.256","448.304","0"
"GENERATED VIA SPACETRACK.ORG API","18 SPCS","48896","SPACEBEE-105","PAYLOAD","U","21059T","2023-09-03 08:20:38","199840","15.38083117","0.0005089","97.6035","25.5977","337.8293","22.273","0","999","12138","0.0014495","0.00054586","0","3996586","0 SPACEBEE-105","1 48896U 21059T   23246.34766435  .00054586  00000-0  14495-2 0  9990","2 48896  97.6035  25.5977 0005089 337.8293  22.2730 15.38083117121387","2021-059T","48896","6829.915","93.623","455.256","448.304","0"
"GENERATED VIA SPACETRACK.ORG API","18 SPCS","48896","SPACEBEE-105","PAYLOAD","U","21059T","2023-09-03 22:23:46","472064","15.38133228","0.0005093","97.6036","26.2043","335.1533","24.9466","0","999","12147","0.0011869","0.00044696","0","3996966","0 SPACEBEE-105","1 48896U 21059T   23246.93317676  .00044696  00000-0  11869-2 0  9997","2 48896  97.6036  26.2043 0005093 335.1533  24.9466 15.38133228121477","2021-059T","48896","6829.767","93.620","455.110","448.153","0"
"GENERATED VIA SPACETRACK.ORG API","18 SPCS","48896","SPACEBEE-105","PAYLOAD","U","21059T","2023-09-04 09:19:31","793088","15.38170873","0.0005093","97.6036","26.6761","333.4581","26.6402","0","999","12154","0.001128","0.00042514","0","3997503","0 SPACEBEE-105","1 48896U 21059T   23247.38856242  .00042514  00000-0  11280-2 0  9998","2 48896  97.6036  26.6761 0005093 333.4581  26.6402 15.38170873121546","2021-059T","48896","6829.655","93.618","454.999","448.042","0"
"GENERATED VIA SPACETRACK.ORG API","18 SPCS","48896","SPACEBEE-105","PAYLOAD","U","21059T","2023-09-04 20:15:16","192224","15.38204562","0.0005093","97.6036","27.1478","331.8742","28.2226","0","999","12161","0.00099538","0.00037522","0","3997868","0 SPACEBEE-105","1 48896U 21059T   23247.84393741  .00037522  00000-0  99538-3 0  9995","2 48896  97.6036  27.1478 0005093 331.8742  28.2226 15.38204562121611","2021-059T","48896","6829.556","93.616","454.899","447.942","0"
"GENERATED VIA SPACETRACK.ORG API","18 SPCS","48896","SPACEBEE-105","PAYLOAD","U","21059T","2023-09-05 08:44:40","177824","15.38242554","0.0005107","97.6034","27.687","329.7306","30.3643","0","999","12169","0.00099451","0.00037535","0","3998343","0 SPACEBEE-105","1 48896U 21059T   23248.36435391  .00037535  00000-0  99451-3 0  9999","2 48896  97.6034  27.6870 0005107 329.7306  30.3643 15.38242554121696","2021-059T","48896","6829.443","93.613","454.796","447.820","0"
"GENERATED VIA SPACETRACK.ORG API","18 SPCS","48896","SPACEBEE-105","PAYLOAD","U","21059T","2023-09-06 08:09:44","350560","15.38325792","0.0005147","97.6033","28.698","325.858","34.2332","0","999","12184","0.0011713","0.00044383","0","3998952","0 SPACEBEE-105","1 48896U 21059T   23249.34009665  .00044383  00000-0  11713-2 0  9992","2 48896  97.6033  28.6980 0005147 325.8580  34.2332 15.38325792121844","2021-059T","48896","6829.197","93.608","454.577","447.547","0"
"GENERATED VIA SPACETRACK.ORG API","18 SPCS","48896","SPACEBEE-105","PAYLOAD","U","21059T","2023-09-06 08:09:44","350560","15.38325792","0.0005147","97.6033","28.698","325.858","34.2332","0","999","12184","0.0011713","0.00044383","0","3999158","0 SPACEBEE-105","1 48896U 21059T   23249.34009665  .00044383  00000-0  11713-2 0  9992","2 48896  97.6033  28.6980 0005147 325.8580  34.2332 15.38325792121844","2021-059T","48896","6829.197","93.608","454.577","447.547","0"
"GENERATED VIA SPACETRACK.ORG API","18 SPCS","48896","SPACEBEE-105","PAYLOAD","U","21059T","2023-09-07 09:08:23","777664","15.38416724","0.000516","97.6032","29.7762","322.2636","37.8246","0","999","12200","0.0012234","0.00046511","0","3999826","0 SPACEBEE-105","1 48896U 21059T   23250.38083076  .00046511  00000-0  12234-2 0  9990","2 48896  97.6032  29.7762 0005160 322.2636  37.8246 15.38416724122009","2021-059T","48896","6828.928","93.603","454.316","447.269","0"
"GENERATED VIA SPACETRACK.ORG API","18 SPCS","48896","SPACEBEE-105","PAYLOAD","U","21059T","2023-09-07 09:08:23","777664","15.38416724","0.000516","97.6032","29.7762","322.2636","37.8246","0","999","12200","0.0012234","0.00046511","0","4000037","0 SPACEBEE-105","1 48896U 21059T   23250.38083076  .00046511  00000-0  12234-2 0  9990","2 48896  97.6032  29.7762 0005160 322.2636  37.8246 15.38416724122009","2021-059T","48896","6828.928","93.603","454.316","447.269","0"
"GENERATED VIA SPACETRACK.ORG API","18 SPCS","48896","SPACEBEE-105","PAYLOAD","U","21059T","2023-09-08 08:33:18","491328","15.38500864","0.0005182","97.603","30.787","318.7057","41.3795","0","999","12215","0.0012361","0.00047127","0","4000854","0 SPACEBEE-105","1 48896U 21059T   23251.35646402  .00047127  00000-0  12361-2 0  9991","2 48896  97.6030  30.7870 0005182 318.7057  41.3795 15.38500864122154","2021-059T","48896","6828.679","93.598","454.082","447.005","0"
"GENERATED VIA SPACETRACK.ORG API","18 SPCS","48896","SPACEBEE-105","PAYLOAD","U","21059T","2023-09-08 21:02:33","788544","15.38546019","0.0005203","97.603","31.3263","316.5279","43.5554","0","999","12223","0.0012122","0.00046277","0","4001154","0 SPACEBEE-105","1 48896U 21059T   23251.87677996  .00046277  00000-0  12122-2 0  9990","2 48896  97.6030  31.3263 0005203 316.5279  43.5554 15.38546019122231","2021-059T","48896","6828.545","93.595","453.963","446.857","0"
